{
  "type": "FeatureCollection",
  "features": [
    {
      "type": "Feature",
      "properties": {
        "norad_id": 34022,
        "name": "COSMOS 2251 DEB",
        "group": "cosmos-2251-debris",
        "lat": 34.92644797706944,
        "lon": 98.23448040154231,
        "alt_km": 772.6489146797185,
        "timestamp": "2025-12-02T10:50:47.669111+00:00",
        "meta_object_name": "COSMOS 2251 DEB",
        "meta_object_id": "1993-036HH",
        "meta_epoch": "2025-12-02T03:35:54.033216",
        "meta_mean_motion": 14.38934408,
        "meta_eccentricity": 0.0022306,
        "meta_inclination": 74.0538,
        "meta_ra_of_asc_node": 290.3074,
        "meta_arg_of_pericenter": 357.2824,
        "meta_mean_anomaly": 22.1159,
        "meta_ephemeris_type": 0,
        "meta_classification_type": "U",
        "meta_norad_cat_id": 34022,
        "meta_element_set_no": 999,
        "meta_rev_at_epoch": 88043,
        "meta_bstar": 0.00030135,
        "meta_mean_motion_dot": 9.05e-06,
        "meta_mean_motion_ddot": 0,
        "tle_line1": "1 34022U 93036HH  25336.14993094  .00000905  00000+0  30135-3 0  9998",
        "tle_line2": "2 34022  74.0538 290.3074 0022306 357.2824  22.1159 14.38934408880436"
      },
      "geometry": {
        "type": "Point",
        "coordinates": [
          98.23448040154231,
          34.92644797706944
        ]
      }
    },
    {
      "type": "Feature",
      "properties": {
        "norad_id": 34023,
        "name": "COSMOS 2251 DEB",
        "group": "cosmos-2251-debris",
        "lat": 3.402280870996304,
        "lon": -88.24296859463941,
        "alt_km": 746.1295056555764,
        "timestamp": "2025-12-02T10:50:47.669121+00:00",
        "meta_object_name": "COSMOS 2251 DEB",
        "meta_object_id": "1993-036HJ",
        "meta_epoch": "2025-12-02T04:48:07.305120",
        "meta_mean_motion": 14.40519714,
        "meta_eccentricity": 0.001801,
        "meta_inclination": 74.0249,
        "meta_ra_of_asc_node": 271.2471,
        "meta_arg_of_pericenter": 8.7686,
        "meta_mean_anomaly": 129.3355,
        "meta_ephemeris_type": 0,
        "meta_classification_type": "U",
        "meta_norad_cat_id": 34023,
        "meta_element_set_no": 999,
        "meta_rev_at_epoch": 88062,
        "meta_bstar": 0.0004346,
        "meta_mean_motion_dot": 1.36e-05,
        "meta_mean_motion_ddot": 0,
        "tle_line1": "1 34023U 93036HJ  25336.20008455  .00001360  00000+0  43460-3 0  9995",
        "tle_line2": "2 34023  74.0249 271.2471 0018010   8.7686 129.3355 14.40519714880627"
      },
      "geometry": {
        "type": "Point",
        "coordinates": [
          -88.24296859463941,
          3.402280870996304
        ]
      }
    },
    {
      "type": "Feature",
      "properties": {
        "norad_id": 34024,
        "name": "COSMOS 2251 DEB",
        "group": "cosmos-2251-debris",
        "lat": -23.094085733207887,
        "lon": 161.857083494346,
        "alt_km": 793.5467621153812,
        "timestamp": "2025-12-02T10:50:47.669131+00:00",
        "meta_object_name": "COSMOS 2251 DEB",
        "meta_object_id": "1993-036HK",
        "meta_epoch": "2025-12-02T01:47:56.624352",
        "meta_mean_motion": 14.3537613,
        "meta_eccentricity": 0.0020554,
        "meta_inclination": 74.0462,
        "meta_ra_of_asc_node": 335.5414,
        "meta_arg_of_pericenter": 29.1669,
        "meta_mean_anomaly": 27.5789,
        "meta_ephemeris_type": 0,
        "meta_classification_type": "U",
        "meta_norad_cat_id": 34024,
        "meta_element_set_no": 999,
        "meta_rev_at_epoch": 87871,
        "meta_bstar": 0.00022903,
        "meta_mean_motion_dot": 6.33e-06,
        "meta_mean_motion_ddot": 0,
        "tle_line1": "1 34024U 93036HK  25336.07496093  .00000633  00000+0  22903-3 0  9991",
        "tle_line2": "2 34024  74.0462 335.5414 0020554  29.1669  27.5789 14.35376130878714"
      },
      "geometry": {
        "type": "Point",
        "coordinates": [
          161.857083494346,
          -23.094085733207887
        ]
      }
    },
    {
      "type": "Feature",
      "properties": {
        "norad_id": 34026,
        "name": "COSMOS 2251 DEB",
        "group": "cosmos-2251-debris",
        "lat": 18.977206599815947,
        "lon": 168.64482068673192,
        "alt_km": 902.351095665661,
        "timestamp": "2025-12-02T10:50:47.669141+00:00",
        "meta_object_name": "COSMOS 2251 DEB",
        "meta_object_id": "1993-036HM",
        "meta_epoch": "2025-12-02T01:23:38.759136",
        "meta_mean_motion": 13.65273134,
        "meta_eccentricity": 0.035128,
        "meta_inclination": 73.7675,
        "meta_ra_of_asc_node": 355.0489,
        "meta_arg_of_pericenter": 226.6089,
        "meta_mean_anomaly": 162.055,
        "meta_ephemeris_type": 0,
        "meta_classification_type": "U",
        "meta_norad_cat_id": 34026,
        "meta_element_set_no": 999,
        "meta_rev_at_epoch": 83386,
        "meta_bstar": 0.001136,
        "meta_mean_motion_dot": 1.383e-05,
        "meta_mean_motion_ddot": 0,
        "tle_line1": "1 34026U 93036HM  25336.05808749  .00001383  00000+0  11360-2 0  9993",
        "tle_line2": "2 34026  73.7675 355.0489 0351280 226.6089 162.0550 13.65273134833860"
      },
      "geometry": {
        "type": "Point",
        "coordinates": [
          168.64482068673192,
          18.977206599815947
        ]
      }
    },
    {
      "type": "Feature",
      "properties": {
        "norad_id": 34028,
        "name": "COSMOS 2251 DEB",
        "group": "cosmos-2251-debris",
        "lat": 26.2432841951208,
        "lon": 11.21808292223838,
        "alt_km": 1336.9238960834045,
        "timestamp": "2025-12-02T10:50:47.669152+00:00",
        "meta_object_name": "COSMOS 2251 DEB",
        "meta_object_id": "1993-036HP",
        "meta_epoch": "2025-12-01T21:01:06.818304",
        "meta_mean_motion": 13.20614793,
        "meta_eccentricity": 0.0544212,
        "meta_inclination": 73.8839,
        "meta_ra_of_asc_node": 3.9068,
        "meta_arg_of_pericenter": 143.605,
        "meta_mean_anomaly": 31.3938,
        "meta_ephemeris_type": 0,
        "meta_classification_type": "U",
        "meta_norad_cat_id": 34028,
        "meta_element_set_no": 999,
        "meta_rev_at_epoch": 80864,
        "meta_bstar": 0.00030579,
        "meta_mean_motion_dot": 2.53e-06,
        "meta_mean_motion_ddot": 0,
        "tle_line1": "1 34028U 93036HP  25335.87577336  .00000253  00000+0  30579-3 0  9998",
        "tle_line2": "2 34028  73.8839   3.9068 0544212 143.6050  31.3938 13.20614793808649"
      },
      "geometry": {
        "type": "Point",
        "coordinates": [
          11.21808292223838,
          26.2432841951208
        ]
      }
    },
    {
      "type": "Feature",
      "properties": {
        "norad_id": 34031,
        "name": "COSMOS 2251 DEB",
        "group": "cosmos-2251-debris",
        "lat": -33.66631810208722,
        "lon": -13.637227345329995,
        "alt_km": 692.7329744149683,
        "timestamp": "2025-12-02T10:50:47.669163+00:00",
        "meta_object_name": "COSMOS 2251 DEB",
        "meta_object_id": "1993-036HS",
        "meta_epoch": "2025-12-01T22:55:40.574208",
        "meta_mean_motion": 14.59479538,
        "meta_eccentricity": 0.0022931,
        "meta_inclination": 74.0119,
        "meta_ra_of_asc_node": 156.3013,
        "meta_arg_of_pericenter": 277.022,
        "meta_mean_anomaly": 210.1382,
        "meta_ephemeris_type": 0,
        "meta_classification_type": "U",
        "meta_norad_cat_id": 34031,
        "meta_element_set_no": 999,
        "meta_rev_at_epoch": 88408,
        "meta_bstar": 0.0013222,
        "meta_mean_motion_dot": 6.272e-05,
        "meta_mean_motion_ddot": 0,
        "tle_line1": "1 34031U 93036HS  25335.95533072  .00006272  00000+0  13222-2 0  9992",
        "tle_line2": "2 34031  74.0119 156.3013 0022931 277.0220 210.1382 14.59479538884081"
      },
      "geometry": {
        "type": "Point",
        "coordinates": [
          -13.637227345329995,
          -33.66631810208722
        ]
      }
    },
    {
      "type": "Feature",
      "properties": {
        "norad_id": 34035,
        "name": "COSMOS 2251 DEB",
        "group": "cosmos-2251-debris",
        "lat": -52.31508209256573,
        "lon": -13.220664109153608,
        "alt_km": 714.7306154049575,
        "timestamp": "2025-12-02T10:50:47.669173+00:00",
        "meta_object_name": "COSMOS 2251 DEB",
        "meta_object_id": "1993-036HW",
        "meta_epoch": "2025-12-01T20:26:50.205408",
        "meta_mean_motion": 14.51729735,
        "meta_eccentricity": 0.0043997,
        "meta_inclination": 74.0664,
        "meta_ra_of_asc_node": 9.6115,
        "meta_arg_of_pericenter": 13.8731,
        "meta_mean_anomaly": 36.9655,
        "meta_ephemeris_type": 0,
        "meta_classification_type": "U",
        "meta_norad_cat_id": 34035,
        "meta_element_set_no": 999,
        "meta_rev_at_epoch": 87808,
        "meta_bstar": 0.0015572,
        "meta_mean_motion_dot": 6.311e-05,
        "meta_mean_motion_ddot": 0,
        "tle_line1": "1 34035U 93036HW  25335.85196997  .00006311  00000+0  15572-2 0  9990",
        "tle_line2": "2 34035  74.0664   9.6115 0043997  13.8731  36.9655 14.51729735878080"
      },
      "geometry": {
        "type": "Point",
        "coordinates": [
          -13.220664109153608,
          -52.31508209256573
        ]
      }
    }
  ]
}